$$SOE
2459580.500000000, A.D. 2022-Jan-01 00:00:00.0000, -4.614348549953610E+08, -3.509276961754605E+08, 1.652549089585580E+07,
2459587.500000000, A.D. 2022-Jan-08 00:00:00.0000, -4.563515880648435E+08, -3.571789305003042E+08, 1.592759729408358E+07,
2459594.500000000, A.D. 2022-Jan-15 00:00:00.0000, -4.511546637581701E+08, -3.633411577086787E+08, 1.532573591619080E+07,
2459601.500000000, A.D. 2022-Jan-22 00:00:00.0000, -4.458452247278071E+08, -3.694127241534773E+08, 1.472005132081170E+07,
2459608.500000000, A.D. 2022-Jan-29 00:00:00.0000, -4.404244259396405E+08, -3.753919768715706E+08, 1.411068890922377E+07,
2459615.500000000, A.D. 2022-Feb-05 00:00:00.0000, -4.348934372832375E+08, -3.812772639259781E+08, 1.349779511371355E+07,
2459622.500000000, A.D. 2022-Feb-12 00:00:00.0000, -4.292534440257540E+08, -3.870669358276468E+08, 1.288151730156812E+07,
2459629.500000000, A.D. 2022-Feb-19 00:00:00.0000, -4.235056464349654E+08, -3.927593456679212E+08, 1.226200370975655E+07,
2459636.500000000, A.D. 2022-Feb-26 00:00:00.0000, -4.176512598829737E+08, -3.983528486845581E+08, 1.163940347134119E+07,
2459643.500000000, A.D. 2022-Mar-05 00:00:00.0000, -4.116915152714342E+08, -4.038458018782579E+08, 1.101386666833255E+07,
2459650.500000000, A.D. 2022-Mar-12 00:00:00.0000, -4.056276595568018E+08, -4.092365637456040E+08, 1.038554438497257E+07,
2459657.500000000, A.D. 2022-Mar-19 00:00:00.0000, -3.994609563049622E+08, -4.145234941003718E+08, 9.754588756930470E+06,
2459664.500000000, A.D. 2022-Mar-26 00:00:00.0000, -3.931926862531394E+08, -4.197049539888914E+08, 9.121153013602585E+06,
2459671.500000000, A.D. 2022-Apr-02 00:00:00.0000, -3.868241478112769E+08, -4.247793057550181E+08, 8.485391502490163E+06,
2459678.500000000, A.D. 2022-Apr-09 00:00:00.0000, -3.803566572307027E+08, -4.297449132498819E+08, 7.847459670870990E+06,
2459685.500000000, A.D. 2022-Apr-16 00:00:00.0000, -3.737915480829645E+08, -4.346001415327082E+08, 7.207514025270462E+06,
2459692.500000000, A.D. 2022-Apr-23 00:00:00.0000, -3.671301713179417E+08, -4.393433549789368E+08, 6.565712273577303E+06,
2459699.500000000, A.D. 2022-Apr-30 00:00:00.0000, -3.603738977717291E+08, -4.439729160415252E+08, 5.922213637728125E+06,
2459706.500000000, A.D. 2022-May-07 00:00:00.0000, -3.535241200624005E+08, -4.484871866400490E+08, 5.277178894658595E+06,
2459713.500000000, A.D. 2022-May-14 00:00:00.0000, -3.465822524855179E+08, -4.528845291401438E+08, 4.630770266365439E+06,
2459720.500000000, A.D. 2022-May-21 00:00:00.0000, -3.395497309412268E+08, -4.571633061645615E+08, 3.983151407438219E+06,
2459727.500000000, A.D. 2022-May-28 00:00:00.0000, -3.324280133718863E+08, -4.613218801945050E+08, 3.334487455663681E+06,
2459734.500000000, A.D. 2022-Jun-04 00:00:00.0000, -3.252185804330280E+08, -4.653586132743348E+08, 2.684945094735831E+06,
2459741.500000000, A.D. 2022-Jun-11 00:00:00.0000, -3.179229362529855E+08, -4.692718668181714E+08, 2.034692616005272E+06,
2459748.500000000, A.D. 2022-Jun-18 00:00:00.0000, -3.105426092428136E+08, -4.730600015060703E+08, 1.383899976854354E+06,
2459755.500000000, A.D. 2022-Jun-25 00:00:00.0000, -3.030791529276370E+08, -4.767213773039128E+08, 7.327388503782153E+05,
2459762.500000000, A.D. 2022-Jul-02 00:00:00.0000, -2.955341466660898E+08, -4.802543536736369E+08, 8.138264881947637E+04,
2459769.500000000, A.D. 2022-Jul-09 00:00:00.0000, -2.879091958682918E+08, -4.836572897976567E+08, -5.699935004420578E+05,
2459776.500000000, A.D. 2022-Jul-16 00:00:00.0000, -2.802059317682136E+08, -4.869285437353765E+08, -1.221212732633203E+06,
2459783.500000000, A.D. 2022-Jul-23 00:00:00.0000, -2.724260129492157E+08, -4.900664704346364E+08, -1.872096168899059E+06,
2459790.500000000, A.D. 2022-Jul-30 00:00:00.0000, -2.645711285387637E+08, -4.930694219529684E+08, -2.522462666826755E+06,
2459797.500000000, A.D. 2022-Aug-06 00:00:00.0000, -2.566429994740564E+08, -4.959357492423018E+08, -3.172128875142604E+06,
2459804.500000000, A.D. 2022-Aug-13 00:00:00.0000, -2.486433786626764E+08, -4.986638027443222E+08, -3.820909291725874E+06,
2459811.500000000, A.D. 2022-Aug-20 00:00:00.0000, -2.405740516083140E+08, -5.012519323010286E+08, -4.468616221869767E+06,
2459818.500000000, A.D. 2022-Aug-27 00:00:00.0000, -2.324368374338207E+08, -5.036984871081483E+08, -5.115059702204734E+06,
2459825.500000000, A.D. 2022-Sep-03 00:00:00.0000, -2.242335900538919E+08, -5.060018158232788E+08, -5.760047421924621E+06,
2459832.500000000, A.D. 2022-Sep-10 00:00:00.0000, -2.159661994074759E+08, -5.081602668065258E+08, -6.403384647563994E+06,
2459839.500000000, A.D. 2022-Sep-17 00:00:00.0000, -2.076365927208085E+08, -5.101721884973896E+08, -7.044874154181153E+06,
2459846.500000000, A.D. 2022-Sep-24 00:00:00.0000, -1.992467357410963E+08, -5.120359299809568E+08, -7.684316172726065E+06,
2459853.500000000, A.D. 2022-Oct-01 00:00:00.0000, -1.907986337013883E+08, -5.137498417679498E+08, -8.321508377589464E+06,
2459860.500000000, A.D. 2022-Oct-08 00:00:00.0000, -1.822943316098652E+08, -5.153122762688189E+08, -8.956245909255207E+06,
2459867.500000000, A.D. 2022-Oct-15 00:00:00.0000, -1.737359147958208E+08, -5.167215867648602E+08, -9.588321248881489E+06,
2459874.500000000, A.D. 2022-Oct-22 00:00:00.0000, -1.651255118940259E+08, -5.179761265622382E+08, -1.021752388267276E+07,
2459881.500000000, A.D. 2022-Oct-29 00:00:00.0000, -1.564652977695182E+08, -5.190742509250461E+08, -1.084364019752914E+07,
2459888.500000000, A.D. 2022-Nov-05 00:00:00.0000, -1.477574942838971E+08, -5.200143190497076E+08, -1.146645357692295E+07,
2459895.500000000, A.D. 2022-Nov-12 00:00:00.0000, -1.390043708687278E+08, -5.207946948165129E+08, -1.208574441352046E+07,
2459902.500000000, A.D. 2022-Nov-19 00:00:00.0000, -1.302082456259767E+08, -5.214137472746992E+08, -1.270129005077854E+07,
2459909.500000000, A.D. 2022-Nov-26 00:00:00.0000, -1.213714866932928E+08, -5.218698512603258E+08, -1.331286471025217E+07,
2459916.500000000, A.D. 2022-Dec-03 00:00:00.0000, -1.124965137074573E+08, -5.221613881604881E+08, -1.392023942099065E+07,
2459923.500000000, A.D. 2022-Dec-10 00:00:00.0000, -1.035857993192267E+08, -5.222867468079087E+08, -1.452318195390150E+07,
2459930.500000000, A.D. 2022-Dec-17 00:00:00.0000, -9.464187073348430E+07, -5.222443245347513E+08, -1.512145676564068E+07,
2459937.500000000, A.D. 2022-Dec-24 00:00:00.0000, -8.566731116433036E+07, -5.220325284562924E+08, -1.571482496768326E+07,
2459944.500000000, A.D. 2022-Dec-31 00:00:00.0000, -7.666476084701642E+07, -5.216497768820500E+08, -1.630304434479886E+07,
2459951.500000000, A.D. 2023-Jan-07 00:00:00.0000, -6.763691748382847E+07, -5.210944998968809E+08, -1.688586935570973E+07,
2459958.500000000, A.D. 2023-Jan-14 00:00:00.0000, -5.858653809060315E+07, -5.203651386193965E+08, -1.746305089504984E+07,
2459965.500000000, A.D. 2023-Jan-21 00:00:00.0000, -4.951644288747688E+07, -5.194601463139722E+08, -1.803433601694256E+07,
2459972.500000000, A.D. 2023-Jan-28 00:00:00.0000, -4.042951756403361E+07, -5.183779915563124E+08, -1.859946797286516E+07,
2459979.500000000, A.D. 2023-Feb-04 00:00:00.0000, -3.132871412564275E+07, -5.171171604301552E+08, -1.915818629748276E+07,
2459986.500000000, A.D. 2023-Feb-11 00:00:00.0000, -2.221705211441454E+07, -5.156761579538137E+08, -1.971022679381257E+07,
2459993.500000000, A.D. 2023-Feb-18 00:00:00.0000, -1.309762026581780E+07, -5.140535095646086E+08, -2.025532147941014E+07,
2460000.500000000, A.D. 2023-Feb-25 00:00:00.0000, -3.973578335503538E+06, -5.122477628278769E+08, -2.079319853114182E+07,
2460007.500000000, A.D. 2023-Mar-04 00:00:00.0000, 5.151841009029180E+06, -5.102574893567361E+08, -2.132358223664722E+07,
2460014.500000000, A.D. 2023-Mar-11 00:00:00.0000, 1.427533026431517E+07, -5.080812869473422E+08, -2.184619295536831E+07,
2460021.500000000, A.D. 2023-Mar-18 00:00:00.0000, 2.339350518570732E+07, -5.057177819848822E+08, -2.236074709782767E+07,
2460028.500000000, A.D. 2023-Mar-25 00:00:00.0000, 3.250290310898040E+07, -5.031656321738146E+08, -2.286695714599422E+07,
2460035.500000000, A.D. 2023-Apr-01 00:00:00.0000, 4.159998192807346E+07, -5.004235292055904E+08, -2.336453172187588E+07,
2460042.500000000, A.D. 2023-Apr-08 00:00:00.0000, 5.068111911860077E+07, -4.974902001454594E+08, -2.385317554816753E+07,
2460049.500000000, A.D. 2023-Apr-15 00:00:00.0000, 5.974260847563890E+07, -4.943644086504592E+08, -2.433258917744026E+07,
2460056.500000000, A.D. 2023-Apr-22 00:00:00.0000, 6.878065638168222E+07, -4.910449590762302E+08, -2.480246890582582E+07,
2460063.500000000, A.D. 2023-Apr-29 00:00:00.0000, 7.779138034755139E+07, -4.875307012267186E+08, -2.526250693872732E+07,
2460070.500000000, A.D. 2023-May-06 00:00:00.0000, 8.677080807402235E+07, -4.838205339732247E+08, -2.571239150240317E+07,
2460077.500000000, A.D. 2023-May-13 00:00:00.0000, 9.571487606583525E+07, -4.799134086436108E+08, -2.615180688580731E+07,
2460084.500000000, A.D. 2023-May-20 00:00:00.0000, 1.046194280414705E+08, -4.758083326797733E+08, -2.658043347538048E+07,
2460091.500000000, A.D. 2023-May-27 00:00:00.0000, 1.134802133422503E+08, -4.715043735997121E+08, -2.699794780414963E+07,
2460098.500000000, A.D. 2023-Jun-03 00:00:00.0000, 1.222928854093470E+08, -4.670006632448652E+08, -2.740402261960450E+07,
2460105.500000000, A.D. 2023-Jun-10 00:00:00.0000, 1.310530003646569E+08, -4.622964023329085E+08, -2.779832697507128E+07,
2460112.500000000, A.D. 2023-Jun-17 00:00:00.0000, 1.397560157980788E+08, -4.573908653826888E+08, -2.818052635916033E+07,
2460119.500000000, A.D. 2023-Jun-24 00:00:00.0000, 1.483972900957793E+08, -4.522834059626437E+08, -2.855028288963360E+07,
2460126.500000000, A.D. 2023-Jul-01 00:00:00.0000, 1.569720825778337E+08, -4.469734614417231E+08, -2.890725552876973E+07,
2460133.500000000, A.D. 2023-Jul-08 00:00:00.0000, 1.654755527868623E+08, -4.414605564270608E+08, -2.925110010098240E+07,
2460140.500000000, A.D. 2023-Jul-15 00:00:00.0000, 1.739027576672090E+08, -4.357443077224097E+08, -2.958146922824359E+07,
$$EOE